{
  "type": "FeatureCollection",
  "features": [
    {
      "type": "Feature",
      "properties": {
        "norad_id": 30565,
        "name": "FENGYUN 1C DEB",
        "group": "fengyun-1c-debris",
        "lat": 28.008115327740896,
        "lon": -143.02209422345598,
        "alt_km": 785.71096178482,
        "timestamp": "2025-12-17T13:48:37.831926+00:00",
        "meta_object_name": "FENGYUN 1C DEB",
        "meta_object_id": "1999-025ALF",
        "meta_epoch": "2025-12-14T14:17:13.563168",
        "meta_mean_motion": 14.09950974,
        "meta_eccentricity": 0.01431996,
        "meta_inclination": 98.4595,
        "meta_ra_of_asc_node": 218.7147,
        "meta_arg_of_pericenter": 350.7343,
        "meta_mean_anomaly": 38.2595,
        "meta_ephemeris_type": 0,
        "meta_classification_type": "U",
        "meta_norad_cat_id": 30565,
        "meta_element_set_no": 999,
        "meta_rev_at_epoch": 95953,
        "meta_bstar": 0.0017219835,
        "meta_mean_motion_dot": 3.298e-05,
        "meta_mean_motion_ddot": 0,
        "tle_line1": "1 30565U 99025ALF 25348.59529587  .00003298  00000+0  17220-2 0  9991",
        "tle_line2": "2 30565  98.4595 218.7147 0143199 350.7343  38.2595 14.09950974959534"
      },
      "geometry": {
        "type": "Point",
        "coordinates": [
          -143.02209422345598,
          28.008115327740896
        ]
      }
    },
    {
      "type": "Feature",
      "properties": {
        "norad_id": 30566,
        "name": "FENGYUN 1C DEB",
        "group": "fengyun-1c-debris",
        "lat": -2.206929560694107,
        "lon": 40.602313371894496,
        "alt_km": 905.5718304005004,
        "timestamp": "2025-12-17T13:48:37.831936+00:00",
        "meta_object_name": "FENGYUN 1C DEB",
        "meta_object_id": "1999-025ALG",
        "meta_epoch": "2025-12-17T02:03:15.509952",
        "meta_mean_motion": 14.11707723,
        "meta_eccentricity": 0.00684375,
        "meta_inclination": 99.2169,
        "meta_ra_of_asc_node": 39.7408,
        "meta_arg_of_pericenter": 170.1962,
        "meta_mean_anomaly": 219.7298,
        "meta_ephemeris_type": 0,
        "meta_classification_type": "U",
        "meta_norad_cat_id": 30566,
        "meta_element_set_no": 999,
        "meta_rev_at_epoch": 96444,
        "meta_bstar": 0.0011515813,
        "meta_mean_motion_dot": 2.097e-05,
        "meta_mean_motion_ddot": 0,
        "tle_line1": "1 30566U 99025ALG 25351.08559618  .00002097  00000+0  11516-2 0  9996",
        "tle_line2": "2 30566  99.2169  39.7408 0068437 170.1962 219.7298 14.11707723964441"
      },
      "geometry": {
        "type": "Point",
        "coordinates": [
          40.602313371894496,
          -2.206929560694107
        ]
      }
    },
    {
      "type": "Feature",
      "properties": {
        "norad_id": 30567,
        "name": "FENGYUN 1C DEB",
        "group": "fengyun-1c-debris",
        "lat": -80.92167759989191,
        "lon": 86.95948338040579,
        "alt_km": 872.410462435304,
        "timestamp": "2025-12-17T13:48:37.831946+00:00",
        "meta_object_name": "FENGYUN 1C DEB",
        "meta_object_id": "1999-025ALH",
        "meta_epoch": "2025-12-16T23:11:09.755232",
        "meta_mean_motion": 14.08902977,
        "meta_eccentricity": 0.01089412,
        "meta_inclination": 98.7755,
        "meta_ra_of_asc_node": 341.5421,
        "meta_arg_of_pericenter": 177.356,
        "meta_mean_anomaly": 240.1291,
        "meta_ephemeris_type": 0,
        "meta_classification_type": "U",
        "meta_norad_cat_id": 30567,
        "meta_element_set_no": 999,
        "meta_rev_at_epoch": 96833,
        "meta_bstar": 0.00019366076,
        "meta_mean_motion_dot": 3.11e-06,
        "meta_mean_motion_ddot": 0,
        "tle_line1": "1 30567U 99025ALH 25350.96608513  .00000311  00000+0  19366-3 0  9991",
        "tle_line2": "2 30567  98.7755 341.5421 0108941 177.3560 240.1291 14.08902977968331"
      },
      "geometry": {
        "type": "Point",
        "coordinates": [
          86.95948338040579,
          -80.92167759989191
        ]
      }
    },
    {
      "type": "Feature",
      "properties": {
        "norad_id": 30568,
        "name": "FENGYUN 1C DEB",
        "group": "fengyun-1c-debris",
        "lat": -54.47613832698429,
        "lon": -30.643961564750413,
        "alt_km": 708.9422044626899,
        "timestamp": "2025-12-17T13:48:37.831956+00:00",
        "meta_object_name": "FENGYUN 1C DEB",
        "meta_object_id": "1999-025ALJ",
        "meta_epoch": "2025-12-16T22:37:25.468032",
        "meta_mean_motion": 14.5527135,
        "meta_eccentricity": 0.00161291,
        "meta_inclination": 98.9418,
        "meta_ra_of_asc_node": 161.4199,
        "meta_arg_of_pericenter": 181.8138,
        "meta_mean_anomaly": 340.2079,
        "meta_ephemeris_type": 0,
        "meta_classification_type": "U",
        "meta_norad_cat_id": 30568,
        "meta_element_set_no": 999,
        "meta_rev_at_epoch": 97720,
        "meta_bstar": 0.0025852875,
        "meta_mean_motion_dot": 0.00011183,
        "meta_mean_motion_ddot": 0,
        "tle_line1": "1 30568U 99025ALJ 25350.94265588  .00011183  00000+0  25853-2 0  9997",
        "tle_line2": "2 30568  98.9418 161.4199 0016129 181.8138 340.2079 14.55271350977206"
      },
      "geometry": {
        "type": "Point",
        "coordinates": [
          -30.643961564750413,
          -54.47613832698429
        ]
      }
    },
    {
      "type": "Feature",
      "properties": {
        "norad_id": 30569,
        "name": "FENGYUN 1C DEB",
        "group": "fengyun-1c-debris",
        "lat": -26.512378122060596,
        "lon": -53.476790812643735,
        "alt_km": 657.3950732613839,
        "timestamp": "2025-12-17T13:48:37.831965+00:00",
        "meta_object_name": "FENGYUN 1C DEB",
        "meta_object_id": "1999-025ALK",
        "meta_epoch": "2025-12-17T07:59:16.569024",
        "meta_mean_motion": 14.7387117,
        "meta_eccentricity": 0.00060334,
        "meta_inclination": 98.7365,
        "meta_ra_of_asc_node": 130.6616,
        "meta_arg_of_pericenter": 72.7885,
        "meta_mean_anomaly": 287.3981,
        "meta_ephemeris_type": 0,
        "meta_classification_type": "U",
        "meta_norad_cat_id": 30569,
        "meta_element_set_no": 999,
        "meta_rev_at_epoch": 98274,
        "meta_bstar": 0.0026946996,
        "meta_mean_motion_dot": 0.00017649,
        "meta_mean_motion_ddot": 0,
        "tle_line1": "1 30569U 99025ALK 25351.33283066  .00017649  00000+0  26947-2 0  9991",
        "tle_line2": "2 30569  98.7365 130.6616 0006033  72.7885 287.3981 14.73871170982742"
      },
      "geometry": {
        "type": "Point",
        "coordinates": [
          -53.476790812643735,
          -26.512378122060596
        ]
      }
    },
    {
      "type": "Feature",
      "properties": {
        "norad_id": 30570,
        "name": "FENGYUN 1C DEB",
        "group": "fengyun-1c-debris",
        "lat": 52.255228339218164,
        "lon": -144.5945836190131,
        "alt_km": 831.5359440120546,
        "timestamp": "2025-12-17T13:48:37.831975+00:00",
        "meta_object_name": "FENGYUN 1C DEB",
        "meta_object_id": "1999-025ALL",
        "meta_epoch": "2025-12-17T01:27:41.670144",
        "meta_mean_motion": 14.14276386,
        "meta_eccentricity": 0.00354826,
        "meta_inclination": 98.7147,
        "meta_ra_of_asc_node": 23.4758,
        "meta_arg_of_pericenter": 199.5164,
        "meta_mean_anomaly": 189.4205,
        "meta_ephemeris_type": 0,
        "meta_classification_type": "U",
        "meta_norad_cat_id": 30570,
        "meta_element_set_no": 999,
        "meta_rev_at_epoch": 97059,
        "meta_bstar": 0.00042844661,
        "meta_mean_motion_dot": 7.8e-06,
        "meta_mean_motion_ddot": 0,
        "tle_line1": "1 30570U 99025ALL 25351.06089896  .00000780  00000+0  42845-3 0  9992",
        "tle_line2": "2 30570  98.7147  23.4758 0035482 199.5164 189.4205 14.14276386970590"
      },
      "geometry": {
        "type": "Point",
        "coordinates": [
          -144.5945836190131,
          52.255228339218164
        ]
      }
    },
    {
      "type": "Feature",
      "properties": {
        "norad_id": 30571,
        "name": "FENGYUN 1C DEB",
        "group": "fengyun-1c-debris",
        "lat": 1.4860363943644908,
        "lon": 17.423017987166247,
        "alt_km": 871.5783710166679,
        "timestamp": "2025-12-17T13:48:37.831985+00:00",
        "meta_object_name": "FENGYUN 1C DEB",
        "meta_object_id": "1999-025ALM",
        "meta_epoch": "2025-12-17T02:12:01.264320",
        "meta_mean_motion": 14.10699781,
        "meta_eccentricity": 0.00209413,
        "meta_inclination": 98.7308,
        "meta_ra_of_asc_node": 17.1815,
        "meta_arg_of_pericenter": 221.1886,
        "meta_mean_anomaly": 204.8869,
        "meta_ephemeris_type": 0,
        "meta_classification_type": "U",
        "meta_norad_cat_id": 30571,
        "meta_element_set_no": 999,
        "meta_rev_at_epoch": 96948,
        "meta_bstar": 0.00028261164,
        "meta_mean_motion_dot": 4.63e-06,
        "meta_mean_motion_ddot": 0,
        "tle_line1": "1 30571U 99025ALM 25351.09168130  .00000463  00000+0  28261-3 0  9999",
        "tle_line2": "2 30571  98.7308  17.1815 0020941 221.1886 204.8869 14.10699781969489"
      },
      "geometry": {
        "type": "Point",
        "coordinates": [
          17.423017987166247,
          1.4860363943644908
        ]
      }
    }
  ]
}